{"type":"FeatureCollection","features":[{"type":"Feature","properties":{"nombre":"Carigán","tipo":"urbana"},"geometry":{"type":"Point","coordinates":[-79.230414,-3.947207]}},{"type":"Feature","properties":{"nombre":"El Sagrario","tipo":"urbana"},"geometry":{"type":"Point","coordinates":[-79.193356,-3.995199]}},{"type":"Feature","properties":{"nombre":"El Valle","tipo":"urbana"},"geometry":{"type":"Point","coordinates":[-79.205642,-3.960691]}},{"type":"Feature","properties":{"nombre":"Punzara","tipo":"urbana"},"geometry":{"type":"Point","coordinates":[-79.209392,-4.036734]}},{"type":"Feature","properties":{"nombre":"San Sebastián","tipo":"urbana"},"geometry":{"type":"Point","coordinates":[-79.19602,-4.024297]}},{"type":"Feature","properties":{"nombre":"Sucre","tipo":"urbana"},"geometry":{"type":"Point","coordinates":[-79.231684,-4.000668]}},{"type":"Feature","properties":{"nombre":"Chantaco","tipo":"rural"},"geometry":{"type":"Point","coordinates":[-79.321692,-3.872619]}},{"type":"Feature","properties":{"nombre":"Chuquiribamba","tipo":"rural"},"geometry":{"type":"Point","coordinates":[-79.370878,-3.864745]}},{"type":"Feature","properties":{"nombre":"El Cisne","tipo":"rural"},"geometry":{"type":"Point","coordinates":[-79.450364,-3.866924]}},{"type":"Feature","properties":{"nombre":"Gualel","tipo":"rural"},"geometry":{"type":"Point","coordinates":[-79.376127,-3.780642]}},{"type":"Feature","properties":{"nombre":"Jimbilla","tipo":"rural"},"geometry":{"type":"Point","coordinates":[-79.177637,-3.862239]}},{"type":"Feature","properties":{"nombre":"Malacatos","tipo":"rural"},"geometry":{"type":"Point","coordinates":[-79.259242,-4.170331]}},{"type":"Feature","properties":{"nombre":"Quinara","tipo":"rural"},"geometry":{"type":"Point","coordinates":[-79.273457,-4.396682]}},{"type":"Feature","properties":{"nombre":"San Lucas","tipo":"rural"},"geometry":{"type":"Point","coordinates":[-79.229218,-3.769467]}},{"type":"Feature","properties":{"nombre":"San Pedro de Vilcabamba","tipo":"rural"},"geometry":{"type":"Point","coordinates":[-79.191318,-4.229164]}},{"type":"Feature","properties":{"nombre":"Santiago","tipo":"rural"},"geometry":{"type":"Point","coordinates":[-79.266927,-3.815432]}},{"type":"Feature","properties":{"nombre":"Taquil","tipo":"rural"},"geometry":{"type":"Point","coordinates":[-79.312151,-3.948466]}},{"type":"Feature","properties":{"nombre":"Vilcabamba","tipo":"rural"},"geometry":{"type":"Point","coordinates":[-79.236895,-4.285668]}},{"type":"Feature","properties":{"nombre":"Yangana","tipo":"rural"},"geometry":{"type":"Point","coordinates":[-79.186316,-4.39104]}},{"type":"Feature","properties":{"nombre":"18 de Noviembre","tipo":"barrio","parroquiaId":"el-sagrario"},"geometry":{"type":"Point","coordinates":[-79.203638,-3.997814]}},{"type":"Feature","properties":{"nombre":"24 de Mayo","tipo":"barrio","parroquiaId":"el-sagrario"},"geometry":{"type":"Point","coordinates":[-79.196801,-3.999634]}},{"type":"Feature","properties":{"nombre":"Alborada","tipo":"barrio","parroquiaId":"sucre"},"geometry":{"type":"Point","coordinates":[-79.219154,-3.988448]}},{"type":"Feature","properties":{"nombre":"Amable María","tipo":"barrio","parroquiaId":"el-valle"},"geometry":{"type":"Point","coordinates":[-79.213691,-3.945448]}},{"type":"Feature","properties":{"nombre":"Barrio Central","tipo":"barrio","parroquiaId":"el-sagrario"},"geometry":{"type":"Point","coordinates":[-79.20172,-3.995987]}},{"type":"Feature","properties":{"nombre":"Belén","tipo":"barrio","parroquiaId":"sucre"},"geometry":{"type":"Point","coordinates":[-79.221333,-3.97512]}},{"type":"Feature","properties":{"nombre":"Bolonia","tipo":"barrio","parroquiaId":"sucre"},"geometry":{"type":"Point","coordinates":[-79.236672,-3.996272]}},{"type":"Feature","properties":{"nombre":"Borja","tipo":"barrio","parroquiaId":"sucre"},"geometry":{"type":"Point","coordinates":[-79.221372,-3.986151]}},{"type":"Feature","properties":{"nombre":"Capulí","tipo":"barrio","parroquiaId":"san-sebastian"},"geometry":{"type":"Point","coordinates":[-79.199429,-4.038055]}},{"type":"Feature","properties":{"nombre":"Capulí Loma","tipo":"barrio","parroquiaId":"sucre"},"geometry":{"type":"Point","coordinates":[-79.216469,-4.004092]}},{"type":"Feature","properties":{"nombre":"Carigan","tipo":"barrio","parroquiaId":"carigan"},"geometry":{"type":"Point","coordinates":[-79.239195,-3.960254]}},{"type":"Feature","properties":{"nombre":"Celi Román","tipo":"barrio","parroquiaId":"sucre"},"geometry":{"type":"Point","coordinates":[-79.208149,-3.990178]}},{"type":"Feature","properties":{"nombre":"Chinguilanchi","tipo":"barrio","parroquiaId":"el-valle"},"geometry":{"type":"Point","coordinates":[-79.19814,-3.964835]}},{"type":"Feature","properties":{"nombre":"Chonta Cruz","tipo":"barrio","parroquiaId":"sucre"},"geometry":{"type":"Point","coordinates":[-79.222698,-4.010745]}},{"type":"Feature","properties":{"nombre":"Ciudad Alegría","tipo":"barrio","parroquiaId":"punzara"},"geometry":{"type":"Point","coordinates":[-79.207341,-4.032666]}},{"type":"Feature","properties":{"nombre":"Clodoveo","tipo":"barrio","parroquiaId":"sucre"},"geometry":{"type":"Point","coordinates":[-79.211529,-3.98006]}},{"type":"Feature","properties":{"nombre":"Colinas Lojanas","tipo":"barrio","parroquiaId":"punzara"},"geometry":{"type":"Point","coordinates":[-79.226219,-4.020987]}},{"type":"Feature","properties":{"nombre":"Daniel Álvarez","tipo":"barrio","parroquiaId":"punzara"},"geometry":{"type":"Point","coordinates":[-79.212813,-4.014864]}},{"type":"Feature","properties":{"nombre":"El Pedestal","tipo":"barrio","parroquiaId":"sucre"},"geometry":{"type":"Point","coordinates":[-79.210744,-3.994888]}},{"type":"Feature","properties":{"nombre":"El Rosal","tipo":"barrio","parroquiaId":"san-sebastian"},"geometry":{"type":"Point","coordinates":[-79.198854,-4.023404]}},{"type":"Feature","properties":{"nombre":"Gran Colombia","tipo":"barrio","parroquiaId":"sucre"},"geometry":{"type":"Point","coordinates":[-79.203883,-3.982004]}},{"type":"Feature","properties":{"nombre":"Héroes del Cenepa","tipo":"barrio","parroquiaId":"punzara"},"geometry":{"type":"Point","coordinates":[-79.209754,-4.030071]}},{"type":"Feature","properties":{"nombre":"Isidro Ayora","tipo":"barrio","parroquiaId":"punzara"},"geometry":{"type":"Point","coordinates":[-79.213717,-4.012747]}},{"type":"Feature","properties":{"nombre":"Jipiro","tipo":"barrio","parroquiaId":"el-valle"},"geometry":{"type":"Point","coordinates":[-79.19632,-3.970839]}},{"type":"Feature","properties":{"nombre":"Juan de Salinas","tipo":"barrio","parroquiaId":"el-sagrario"},"geometry":{"type":"Point","coordinates":[-79.203563,-3.990531]}},{"type":"Feature","properties":{"nombre":"Juan José Castillo","tipo":"barrio","parroquiaId":"punzara"},"geometry":{"type":"Point","coordinates":[-79.214911,-4.024049]}},{"type":"Feature","properties":{"nombre":"La Argelia","tipo":"barrio","parroquiaId":"punzara"},"geometry":{"type":"Point","coordinates":[-79.203886,-4.046336]}},{"type":"Feature","properties":{"nombre":"La Banda","tipo":"barrio","parroquiaId":"carigan"},"geometry":{"type":"Point","coordinates":[-79.227212,-3.960988]}},{"type":"Feature","properties":{"nombre":"La Estancia","tipo":"barrio","parroquiaId":"el-valle"},"geometry":{"type":"Point","coordinates":[-79.201992,-3.966401]}},{"type":"Feature","properties":{"nombre":"La Inmaculada","tipo":"barrio","parroquiaId":"el-valle"},"geometry":{"type":"Point","coordinates":[-79.209819,-3.964396]}},{"type":"Feature","properties":{"nombre":"La Paz","tipo":"barrio","parroquiaId":"el-valle"},"geometry":{"type":"Point","coordinates":[-79.204726,-3.962803]}},{"type":"Feature","properties":{"nombre":"Las Palmas","tipo":"barrio","parroquiaId":"el-valle"},"geometry":{"type":"Point","coordinates":[-79.202324,-3.987754]}},{"type":"Feature","properties":{"nombre":"Los Eucaliptos","tipo":"barrio","parroquiaId":"sucre"},"geometry":{"type":"Point","coordinates":[-79.243155,-3.992929]}},{"type":"Feature","properties":{"nombre":"Los Geraneos","tipo":"barrio","parroquiaId":"san-sebastian"},"geometry":{"type":"Point","coordinates":[-79.201058,-4.019769]}},{"type":"Feature","properties":{"nombre":"Máximo Agustín Rodríguez","tipo":"barrio","parroquiaId":"san-sebastian"},"geometry":{"type":"Point","coordinates":[-79.202423,-4.002905]}},{"type":"Feature","properties":{"nombre":"Menfis","tipo":"barrio","parroquiaId":"sucre"},"geometry":{"type":"Point","coordinates":[-79.232939,-4.006238]}},{"type":"Feature","properties":{"nombre":"Miraflores","tipo":"barrio","parroquiaId":"sucre"},"geometry":{"type":"Point","coordinates":[-79.212595,-3.999568]}},{"type":"Feature","properties":{"nombre":"Motupe","tipo":"barrio","parroquiaId":"carigan"},"geometry":{"type":"Point","coordinates":[-79.231384,-3.94438]}},{"type":"Feature","properties":{"nombre":"Obrapía","tipo":"barrio","parroquiaId":"sucre"},"geometry":{"type":"Point","coordinates":[-79.230454,-3.998332]}},{"type":"Feature","properties":{"nombre":"Orillas del Zamora","tipo":"barrio","parroquiaId":"el-sagrario"},"geometry":{"type":"Point","coordinates":[-79.18935,-3.994762]}},{"type":"Feature","properties":{"nombre":"Perpetuo Socorro","tipo":"barrio","parroquiaId":"el-sagrario"},"geometry":{"type":"Point","coordinates":[-79.205813,-4.004691]}},{"type":"Feature","properties":{"nombre":"Pitas","tipo":"barrio","parroquiaId":"carigan"},"geometry":{"type":"Point","coordinates":[-79.215157,-3.968545]}},{"type":"Feature","properties":{"nombre":"Plateado","tipo":"barrio","parroquiaId":"sucre"},"geometry":{"type":"Point","coordinates":[-79.235994,-3.98662]}},{"type":"Feature","properties":{"nombre":"Pradera","tipo":"barrio","parroquiaId":"san-sebastian"},"geometry":{"type":"Point","coordinates":[-79.198125,-4.012396]}},{"type":"Feature","properties":{"nombre":"Pucará","tipo":"barrio","parroquiaId":"san-sebastian"},"geometry":{"type":"Point","coordinates":[-79.195808,-4.008145]}},{"type":"Feature","properties":{"nombre":"Ramón Pinto","tipo":"barrio","parroquiaId":"el-sagrario"},"geometry":{"type":"Point","coordinates":[-79.207303,-3.99682]}},{"type":"Feature","properties":{"nombre":"San Cayetano","tipo":"barrio","parroquiaId":"el-valle"},"geometry":{"type":"Point","coordinates":[-79.197004,-3.982521]}},{"type":"Feature","properties":{"nombre":"San Isidro","tipo":"barrio","parroquiaId":"punzara"},"geometry":{"type":"Point","coordinates":[-79.202956,-4.026078]}},{"type":"Feature","properties":{"nombre":"San José","tipo":"barrio","parroquiaId":"sucre"},"geometry":{"type":"Point","coordinates":[-79.206874,-3.981493]}},{"type":"Feature","properties":{"nombre":"San Juan del Valle","tipo":"barrio","parroquiaId":"el-valle"},"geometry":{"type":"Point","coordinates":[-79.201839,-3.980252]}},{"type":"Feature","properties":{"nombre":"San Pedro","tipo":"barrio","parroquiaId":"punzara"},"geometry":{"type":"Point","coordinates":[-79.210465,-4.006529]}},{"type":"Feature","properties":{"nombre":"San Vicente","tipo":"barrio","parroquiaId":"sucre"},"geometry":{"type":"Point","coordinates":[-79.21082,-3.986192]}},{"type":"Feature","properties":{"nombre":"Santa Teresita","tipo":"barrio","parroquiaId":"punzara"},"geometry":{"type":"Point","coordinates":[-79.207106,-4.017023]}},{"type":"Feature","properties":{"nombre":"Santiago Fernandez","tipo":"barrio","parroquiaId":"el-valle"},"geometry":{"type":"Point","coordinates":[-79.193638,-3.988523]}},{"type":"Feature","properties":{"nombre":"Santo Domingo","tipo":"barrio","parroquiaId":"el-sagrario"},"geometry":{"type":"Point","coordinates":[-79.202094,-3.999403]}},{"type":"Feature","properties":{"nombre":"Sauces Norte","tipo":"barrio","parroquiaId":"carigan"},"geometry":{"type":"Point","coordinates":[-79.223151,-3.93857]}},{"type":"Feature","properties":{"nombre":"Sol de los Andes","tipo":"barrio","parroquiaId":"punzara"},"geometry":{"type":"Point","coordinates":[-79.211596,-4.028469]}},{"type":"Feature","properties":{"nombre":"Tebaida","tipo":"barrio","parroquiaId":"punzara"},"geometry":{"type":"Point","coordinates":[-79.206363,-4.013131]}},{"type":"Feature","properties":{"nombre":"Tierras Coloradas","tipo":"barrio","parroquiaId":"sucre"},"geometry":{"type":"Point","coordinates":[-79.23752,-4.016268]}},{"type":"Feature","properties":{"nombre":"Turunuma","tipo":"barrio","parroquiaId":"sucre"},"geometry":{"type":"Point","coordinates":[-79.210635,-3.97636]}},{"type":"Feature","properties":{"nombre":"Yaguarcuna","tipo":"barrio","parroquiaId":"san-sebastian"},"geometry":{"type":"Point","coordinates":[-79.198359,-4.019589]}},{"type":"Feature","properties":{"nombre":"Zalapa","tipo":"barrio","parroquiaId":"carigan"},"geometry":{"type":"Point","coordinates":[-79.242839,-3.948201]}},{"type":"Feature","properties":{"nombre":"Zamora Huayco","tipo":"barrio","parroquiaId":"san-sebastian"},"geometry":{"type":"Point","coordinates":[-79.190758,-4.004691]}},{"type":"Feature","properties":{"nombre":"Gualel","tipo":"cabecera"},"geometry":{"type":"Point","coordinates":[-79.374854,-3.769058]}},{"type":"Feature","properties":{"nombre":"Chantaco","tipo":"cabecera"},"geometry":{"type":"Point","coordinates":[-79.329716,-3.879723]}},{"type":"Feature","properties":{"nombre":"Chuquiribamba","tipo":"cabecera"},"geometry":{"type":"Point","coordinates":[-79.344303,-3.841544]}},{"type":"Feature","properties":{"nombre":"El Cisne","tipo":"cabecera"},"geometry":{"type":"Point","coordinates":[-79.424265,-3.850819]}},{"type":"Feature","properties":{"nombre":"Jimbilla","tipo":"cabecera"},"geometry":{"type":"Point","coordinates":[-79.171479,-3.860201]}},{"type":"Feature","properties":{"nombre":"Malacatos","tipo":"cabecera"},"geometry":{"type":"Point","coordinates":[-79.259376,-4.219716]}},{"type":"Feature","properties":{"nombre":"Quinara","tipo":"cabecera"},"geometry":{"type":"Point","coordinates":[-79.237152,-4.318799]}},{"type":"Feature","properties":{"nombre":"Santiago","tipo":"cabecera"},"geometry":{"type":"Point","coordinates":[-79.284787,-3.793181]}},{"type":"Feature","properties":{"nombre":"San Lucas","tipo":"cabecera"},"geometry":{"type":"Point","coordinates":[-79.263342,-3.73683]}},{"type":"Feature","properties":{"nombre":"Taquil","tipo":"cabecera"},"geometry":{"type":"Point","coordinates":[-79.288799,-3.890602]}},{"type":"Feature","properties":{"nombre":"Yangana","tipo":"cabecera"},"geometry":{"type":"Point","coordinates":[-79.176462,-4.363863]}},{"type":"Feature","properties":{"nombre":"San Pedro de Vilcabamba","tipo":"cabecera"},"geometry":{"type":"Point","coordinates":[-79.221144,-4.243461]}},{"type":"Feature","properties":{"nombre":"Vilcabamba","tipo":"cabecera"},"geometry":{"type":"Point","coordinates":[-79.219487,-4.261707]}}]}